$$SOE
2460714.500000000, A.D. 2025-Feb-08 00:00:00.0000, 5.593544612717526E+07, -4.295056074497548E+08, 7.785138909857289E+07,
2460721.500000000, A.D. 2025-Feb-15 00:00:00.0000, 6.626830645585296E+07, -4.270388785631039E+08, 7.738343325727125E+07,
2460728.500000000, A.D. 2025-Feb-22 00:00:00.0000, 7.656314381913061E+07, -4.243272326603072E+08, 7.687108375311199E+07,
2460735.500000000, A.D. 2025-Mar-01 00:00:00.0000, 8.681373896539210E+07, -4.213704771555181E+08, 7.631431773015313E+07,
2460742.500000000, A.D. 2025-Mar-08 00:00:00.0000, 9.701381279086994E+07, -4.181685754481456E+08, 7.571314059949841E+07,
2460749.500000000, A.D. 2025-Mar-15 00:00:00.0000, 1.071570301362301E+08, -4.147216494350661E+08, 7.506758697655812E+07,
2460756.500000000, A.D. 2025-Mar-22 00:00:00.0000, 1.172370016377239E+08, -4.110299833888265E+08, 7.437772169754627E+07,
2460763.500000000, A.D. 2025-Mar-29 00:00:00.0000, 1.272472872158181E+08, -4.070940300284184E+08, 7.364364051504700E+07,
2460770.500000000, A.D. 2025-Apr-05 00:00:00.0000, 1.371814015316024E+08, -4.029144156298755E+08, 7.286547069654341E+07,
2460777.500000000, A.D. 2025-Apr-12 00:00:00.0000, 1.470328194886388E+08, -3.984919440577467E+08, 7.204337170828472E+07,
2460784.500000000, A.D. 2025-Apr-19 00:00:00.0000, 1.567949815956334E+08, -3.938276005825682E+08, 7.117753592656693E+07,
2460791.500000000, A.D. 2025-Apr-26 00:00:00.0000, 1.664612994632936E+08, -3.889225556703137E+08, 7.026818933171283E+07,
2460798.500000000, A.D. 2025-May-03 00:00:00.0000, 1.760251615496958E+08, -3.837781687069844E+08, 6.931559217260164E+07,
2460805.500000000, A.D. 2025-May-10 00:00:00.0000, 1.854799391822034E+08, -3.783959916313279E+08, 6.832003959638491E+07,
2460812.500000000, A.D. 2025-May-17 00:00:00.0000, 1.948189928910969E+08, -3.727777724977194E+08, 6.728186223310481E+07,
2460819.500000000, A.D. 2025-May-24 00:00:00.0000, 2.040356792262844E+08, -3.669254590045802E+08, 6.620142671140338E+07,
2460826.500000000, A.D. 2025-May-31 00:00:00.0000, 2.131233584706584E+08, -3.608412016586313E+08, 6.507913608922863E+07,
2460833.500000000, A.D. 2025-Jun-07 00:00:00.0000, 2.220754028423943E+08, -3.545273553512284E+08, 6.391543033131044E+07,
2460840.500000000, A.D. 2025-Jun-14 00:00:00.0000, 2.308852028123365E+08, -3.479864799926043E+08, 6.271078699136081E+07,
2460847.500000000, A.D. 2025-Jun-21 00:00:00.0000, 2.395461727433918E+08, -3.412213434515735E+08, 6.146572171488056E+07,
2460854.500000000, A.D. 2025-Jun-28 00:00:00.0000, 2.480517589719301E+08, -3.342349250129263E+08, 6.018078841559011E+07,
2460861.500000000, A.D. 2025-Jul-05 00:00:00.0000, 2.563954488062222E+08, -3.270304171765975E+08, 5.885657943812068E+07,
2460868.500000000, A.D. 2025-Jul-12 00:00:00.0000, 2.645707792399608E+08, -3.196112265868157E+08, 5.749372574825020E+07,
2460875.500000000, A.D. 2025-Jul-19 00:00:00.0000, 2.725713455561159E+08, -3.119809746497723E+08, 5.609289708393195E+07,
2460882.500000000, A.D. 2025-Jul-26 00:00:00.0000, 2.803908100137307E+08, -3.041434978796309E+08, 5.465480204038245E+07,
2460889.500000000, A.D. 2025-Aug-02 00:00:00.0000, 2.880229106632241E+08, -2.961028479340132E+08, 5.318018808169115E+07,
2460896.500000000, A.D. 2025-Aug-09 00:00:00.0000, 2.954614702916855E+08, -2.878632913358993E+08, 5.166984147198601E+07,
2460903.500000000, A.D. 2025-Aug-16 00:00:00.0000, 3.027004055516091E+08, -2.794293089269455E+08, 5.012458711018340E+07,
2460910.500000000, A.D. 2025-Aug-23 00:00:00.0000, 3.097337365419264E+08, -2.708055950176393E+08, 4.854528823953684E+07,
2460917.500000000, A.D. 2025-Aug-30 00:00:00.0000, 3.165555971472200E+08, -2.619970555044488E+08, 4.693284605807922E+07,
2460924.500000000, A.D. 2025-Sep-06 00:00:00.0000, 3.231602446932530E+08, -2.530088039420243E+08, 4.528819944073727E+07,
2460931.500000000, A.D. 2025-Sep-13 00:00:00.0000, 3.295420672209168E+08, -2.438461580438514E+08, 4.361232472220928E+07,
2460938.500000000, A.D. 2025-Sep-20 00:00:00.0000, 3.356955916220438E+08, -2.345146382459489E+08, 4.190623510432698E+07,
2460945.500000000, A.D. 2025-Sep-27 00:00:00.0000, 3.416154936661437E+08, -2.250199652140088E+08, 4.017097984410997E+07,
2460952.500000000, A.D. 2025-Oct-04 00:00:00.0000, 3.472966078714312E+08, -2.153680557502124E+08, 3.840764345124578E+07,
2460959.500000000, A.D. 2025-Oct-11 00:00:00.0000, 3.527339368148717E+08, -2.055650180403966E+08, 3.661734485200023E+07,
2460966.500000000, A.D. 2025-Oct-18 00:00:00.0000, 3.579226601320873E+08, -1.956171465152867E+08, 3.480123647103342E+07,
2460973.500000000, A.D. 2025-Oct-25 00:00:00.0000, 3.628581433132848E+08, -1.855309163160077E+08, 3.296050321943746E+07,
2460980.500000000, A.D. 2025-Nov-01 00:00:00.0000, 3.675359463010190E+08, -1.753129773519296E+08, 3.109636138724995E+07,
2460987.500000000, A.D. 2025-Nov-08 00:00:00.0000, 3.719518318903453E+08, -1.649701479884112E+08, 2.921005743565612E+07,
2460994.500000000, A.D. 2025-Nov-15 00:00:00.0000, 3.761017740443913E+08, -1.545094084314092E+08, 2.730286667166585E+07,
2461001.500000000, A.D. 2025-Nov-22 00:00:00.0000, 3.799819664930505E+08, -1.439378935984460E+08, 2.537609178779362E+07,
2461008.500000000, A.D. 2025-Nov-29 00:00:00.0000, 3.835888314294521E+08, -1.332628843525978E+08, 2.343106137613520E+07,
2461015.500000000, A.D. 2025-Dec-06 00:00:00.0000, 3.869190259977210E+08, -1.224917972525750E+08, 2.146912861824376E+07,
2461022.500000000, A.D. 2025-Dec-13 00:00:00.0000, 3.899694469745412E+08, -1.116321762101676E+08, 1.949166983892175E+07,
2461029.500000000, A.D. 2025-Dec-20 00:00:00.0000, 3.927372371050166E+08, -1.006916850524159E+08, 1.750008269036908E+07,
2461036.500000000, A.D. 2025-Dec-27 00:00:00.0000, 3.952197919898527E+08, -8.967809841908516E+07, 1.549578428117568E+07,
2461043.500000000, A.D. 2026-Jan-03 00:00:00.0000, 3.974147660386002E+08, -7.859929163619523E+07, 1.348020933868498E+07,
2461050.500000000, A.D. 2026-Jan-10 00:00:00.0000, 3.993200775743093E+08, -6.746323027209432E+07, 1.145480834452992E+07,
2461057.500000000, A.D. 2026-Jan-17 00:00:00.0000, 4.009339132996488E+08, -5.627795949697985E+07, 9.421045620212911E+06,
2461064.500000000, A.D. 2026-Jan-24 00:00:00.0000, 4.022547321823919E+08, -4.505159325424451E+07, 7.380397363474805E+06,
2461071.500000000, A.D. 2026-Jan-31 00:00:00.0000, 4.032812687665147E+08, -3.379230328397704E+07, 5.334349639036862E+06,
2461078.500000000, A.D. 2026-Feb-07 00:00:00.0000, 4.040125359558859E+08, -2.250830809117594E+07, 3.284396319894137E+06,
2461085.500000000, A.D. 2026-Feb-14 00:00:00.0000, 4.044478275102627E+08, -1.120786191168186E+07, 1.232036961117897E+06,
2461092.500000000, A.D. 2026-Feb-21 00:00:00.0000, 4.045867206271396E+08, 1.007568628804514E+05, -8.212253758626606E+05,
2461099.500000000, A.D. 2026-Feb-28 00:00:00.0000, 4.044290775133152E+08, 1.140925891832580E+07, -2.873886147801977E+06,
2461106.500000000, A.D. 2026-Mar-07 00:00:00.0000, 4.039750438834851E+08, 2.270935692221889E+07, -4.924441166128211E+06,
2461113.500000000, A.D. 2026-Mar-14 00:00:00.0000, 4.032250471590917E+08, 3.399277572761641E+07, -6.971388683486373E+06,
2461120.500000000, A.D. 2026-Mar-21 00:00:00.0000, 4.021797961496251E+08, 4.525126273778805E+07, -9.013231649683131E+06,
2461127.500000000, A.D. 2026-Mar-28 00:00:00.0000, 4.008402802137313E+08, 5.647659942458690E+07, -1.104847986098269E+07,
2461134.500000000, A.D. 2026-Apr-04 00:00:00.0000, 3.992077673080279E+08, 6.766061299665175E+07, -1.307565201892525E+07,
2461141.500000000, A.D. 2026-Apr-11 00:00:00.0000, 3.972838012104546E+08, 7.879518781845188E+07, -1.509327774631209E+07,
2461148.500000000, A.D. 2026-Apr-18 00:00:00.0000, 3.950701980912132E+08, 8.987227653543729E+07, -1.709989956894147E+07,
2461155.500000000, A.D. 2026-Apr-25 00:00:00.0000, 3.925690424926120E+08, 1.008839108839029E+08, -1.909407485972930E+07,
2461162.500000000, A.D. 2026-May-02 00:00:00.0000, 3.897826827665561E+08, 1.118222121220286E+08, -2.107437774429388E+07,
2461169.500000000, A.D. 2026-May-09 00:00:00.0000, 3.867137261153676E+08, 1.226794009838425E+08, -2.303940097901462E+07,
2461176.500000000, A.D. 2026-May-16 00:00:00.0000, 3.833650336372323E+08, 1.334478072633920E+08, -2.498775781954995E+07,
2461183.500000000, A.D. 2026-May-23 00:00:00.0000, 3.797397154508575E+08, 1.441198800217906E+08, -2.691808379584597E+07,
2461190.500000000, A.D. 2026-May-30 00:00:00.0000, 3.758411238451115E+08, 1.546881987124211E+08, -2.882903817166263E+07,
2461197.500000000, A.D. 2026-Jun-06 00:00:00.0000, 3.716728441685762E+08, 1.651454819296929E+08, -3.071930532282922E+07,
2461204.500000000, A.D. 2026-Jun-13 00:00:00.0000, 3.672386871574851E+08, 1.754845939569058E+08, -3.258759635098860E+07,
2461211.500000000, A.D. 2026-Jun-20 00:00:00.0000, 3.625426822296702E+08, 1.856985520187086E+08, -3.443265064444365E+07,
2461218.500000000, A.D. 2026-Jun-27 00:00:00.0000, 3.575890700769495E+08, 1.957805338822928E+08, -3.625323725514969E+07,
2461225.500000000, A.D. 2026-Jul-04 00:00:00.0000, 3.523822945888612E+08, 2.057238850189993E+08, -3.804815615287259E+07,
2461232.500000000, A.D. 2026-Jul-11 00:00:00.0000, 3.469269943952844E+08, 2.155221251832263E+08, -3.981623938881794E+07,
2461239.500000000, A.D. 2026-Jul-18 00:00:00.0000, 3.412279941543859E+08, 2.251689544256210E+08, -4.155635217382574E+07,
2461246.500000000, A.D. 2026-Jul-25 00:00:00.0000, 3.352902956440365E+08, 2.346582585370972E+08, -4.326739387227011E+07,
2461253.500000000, A.D. 2026-Aug-01 00:00:00.0000, 3.291190687384240E+08, 2.439841138720419E+08, -4.494829891956825E+07,
2461260.500000000, A.D. 2026-Aug-08 00:00:00.0000, 3.227196425184774E+08, 2.531407915139521E+08, -4.659803768602113E+07,
2461267.500000000, A.D. 2026-Aug-15 00:00:00.0000, 3.160974969648343E+08, 2.621227612345202E+08, -4.821561728886795E+07,
2461274.500000000, A.D. 2026-Aug-22 00:00:00.0000, 3.092582545030302E+08, 2.709246964681883E+08, -4.980008218340111E+07,
2461281.500000000, A.D. 2026-Aug-29 00:00:00.0000, 3.022076691391941E+08, 2.795414789349680E+08, -5.135051443552569E+07,
$$EOE